*******************************************************************************
Ephemeris / WWW_USER Mon Mar 24 08:28:46 2025 Pasadena, USA      / Horizons    
*******************************************************************************
Target body name: (2018 VS8)                      {source: JPL#8}
Center body name: Earth (399)                     {source: DE441}
Center-site name: Mauna Kea
*******************************************************************************
Start time      : A.D. 2018-Sep-25 04:25:00.0000 UT      
Stop  time      : A.D. 2018-Sep-25 16:02:00.0000 UT      
Step-size       : 1 minutes
*******************************************************************************
Target pole/equ : undefined
Target radii    : undefined                                                    
Center geodetic : 204.5278, 19.8260847, 4.21024   {E-lon(deg),Lat(deg),Alt(km)}
Center cylindric: 204.5278, 6006.35451, 2151.0229 {E-lon(deg),Dxy(km),Dz(km)}
Center pole/equ : ITRF93                          {East-longitude positive}
Center radii    : 6378.137, 6378.137, 6356.752 km {Equator_a, b, pole_c}       
Target primary  : Sun
Vis. interferer : MOON (R_eq= 1737.400) km        {source: DE441}
Rel. light bend : Sun                             {source: DE441}
Rel. lght bnd GM: 1.3271E+11 km^3/s^2                                          
Small-body perts: Yes                             {source: SB441-N16}
Atmos refraction: NO (AIRLESS)
RA format       : HMS
Time format     : CAL 
Calendar mode   : Mixed Julian/Gregorian
RTS-only print  : NO       
EOP file        : eop.250321.p250617                                           
EOP coverage    : DATA-BASED 1962-JAN-20 TO 2025-MAR-21. PREDICTS-> 2025-JUN-16
Units conversion: 1 au= 149597870.700 km, c= 299792.458 km/s, 1 day= 86400.0 s 
Table cut-offs 1: Elevation (-90.0deg=NO ),Airmass (>38.000=NO), Daylight (YES)
Table cut-offs 2: Solar elongation (  0.0,180.0=NO ),Local Hour Angle( 0.0=NO )
Table cut-offs 3: RA/DEC angular rate (     0.0=NO )                           
*******************************************************************************
Initial IAU76/J2000 heliocentric ecliptic osculating elements (au, days, deg.):
  EPOCH=  2458433.5 ! 2018-Nov-11.00 (TDB)         Residual RMS= .33953        
   EC= .5263784885368822   QR= .9373233613851428   TP= 2458465.1575556668      
   OM= 53.89076972236643   W=  33.71683445616237   IN= 3.430463171034721       
  Equivalent ICRF heliocentric cartesian coordinates (au, au/d):
   X= 6.888560011548344E-01  Y= 6.928655939663307E-01  Z= 2.929974091538562E-01
  VX=-1.813811938800288E-02 VY= 8.693003909227039E-03 VZ= 5.111678677431928E-03
Asteroid physical parameters (km, seconds, rotational period in hours):        
   GM= n.a.                RAD= n.a.               ROTPER= n.a.                
   H= 27.2                 G= .150                 B-V= n.a.                   
                           ALBEDO= n.a.            STYP= n.a.                  
*******************************************************************************
 Date__(UT)__HR:MN     R.A._________(ICRF)_________DEC
******************************************************
$$SOE
 2018-Sep-25 06:28  m  01 25 22.290590 -01 47 14.54302
 2018-Sep-25 06:29  m  01 25 22.302425 -01 47 14.71346
 2018-Sep-25 06:30  m  01 25 22.314229 -01 47 14.88390
 2018-Sep-25 06:31  m  01 25 22.326003 -01 47 15.05434
 2018-Sep-25 06:32  m  01 25 22.337746 -01 47 15.22478
 2018-Sep-25 06:33  m  01 25 22.349458 -01 47 15.39522
 2018-Sep-25 06:34  m  01 25 22.361140 -01 47 15.56566
 2018-Sep-25 06:35  m  01 25 22.372790 -01 47 15.73611
 2018-Sep-25 06:36  m  01 25 22.384410 -01 47 15.90655
 2018-Sep-25 06:37  m  01 25 22.396000 -01 47 16.07700
 2018-Sep-25 06:38  m  01 25 22.407559 -01 47 16.24744
 2018-Sep-25 06:39  m  01 25 22.419087 -01 47 16.41789
 2018-Sep-25 06:40  m  01 25 22.430585 -01 47 16.58833
 2018-Sep-25 06:41  m  01 25 22.442052 -01 47 16.75878
 2018-Sep-25 06:42  m  01 25 22.453489 -01 47 16.92923
 2018-Sep-25 06:43  m  01 25 22.464895 -01 47 17.09967
 2018-Sep-25 06:44  m  01 25 22.476272 -01 47 17.27012
 2018-Sep-25 06:45  m  01 25 22.487617 -01 47 17.44057
 2018-Sep-25 06:46  m  01 25 22.498933 -01 47 17.61102
 2018-Sep-25 06:47  m  01 25 22.510218 -01 47 17.78146
 2018-Sep-25 06:48  m  01 25 22.521473 -01 47 17.95191
 2018-Sep-25 06:49  m  01 25 22.532698 -01 47 18.12236
 2018-Sep-25 06:50  m  01 25 22.543893 -01 47 18.29281
 2018-Sep-25 06:51  m  01 25 22.555058 -01 47 18.46325
 2018-Sep-25 06:52  m  01 25 22.566193 -01 47 18.63370
 2018-Sep-25 06:53  m  01 25 22.577297 -01 47 18.80415
 2018-Sep-25 06:54  m  01 25 22.588372 -01 47 18.97459
 2018-Sep-25 06:55  m  01 25 22.599417 -01 47 19.14504
 2018-Sep-25 06:56  m  01 25 22.610432 -01 47 19.31548
 2018-Sep-25 06:57  m  01 25 22.621417 -01 47 19.48593
 2018-Sep-25 06:58  m  01 25 22.632373 -01 47 19.65637
 2018-Sep-25 06:59  m  01 25 22.643299 -01 47 19.82682
 2018-Sep-25 07:00  m  01 25 22.654195 -01 47 19.99726
 2018-Sep-25 07:01  m  01 25 22.665062 -01 47 20.16770
 2018-Sep-25 07:02  m  01 25 22.675899 -01 47 20.33814
 2018-Sep-25 07:03  m  01 25 22.686706 -01 47 20.50858
 2018-Sep-25 07:04  m  01 25 22.697484 -01 47 20.67902
 2018-Sep-25 07:05  m  01 25 22.708233 -01 47 20.84946
 2018-Sep-25 07:06  m  01 25 22.718953 -01 47 21.01989
 2018-Sep-25 07:07  m  01 25 22.729643 -01 47 21.19033
 2018-Sep-25 07:08  m  01 25 22.740304 -01 47 21.36077
 2018-Sep-25 07:09  m  01 25 22.750935 -01 47 21.53120
 2018-Sep-25 07:10  m  01 25 22.761538 -01 47 21.70163
 2018-Sep-25 07:11  m  01 25 22.772111 -01 47 21.87206
 2018-Sep-25 07:12  m  01 25 22.782656 -01 47 22.04249
 2018-Sep-25 07:13  m  01 25 22.793171 -01 47 22.21292
 2018-Sep-25 07:14  m  01 25 22.803658 -01 47 22.38334
 2018-Sep-25 07:15  m  01 25 22.814115 -01 47 22.55377
 2018-Sep-25 07:16  m  01 25 22.824544 -01 47 22.72419
 2018-Sep-25 07:17  m  01 25 22.834944 -01 47 22.89461
 2018-Sep-25 07:18  m  01 25 22.845316 -01 47 23.06503
 2018-Sep-25 07:19  m  01 25 22.855659 -01 47 23.23545
 2018-Sep-25 07:20  m  01 25 22.865973 -01 47 23.40587
 2018-Sep-25 07:21  m  01 25 22.876259 -01 47 23.57628
 2018-Sep-25 07:22  m  01 25 22.886516 -01 47 23.74669
 2018-Sep-25 07:23  m  01 25 22.896745 -01 47 23.91710
 2018-Sep-25 07:24  m  01 25 22.906946 -01 47 24.08751
 2018-Sep-25 07:25  m  01 25 22.917118 -01 47 24.25792
 2018-Sep-25 07:26  m  01 25 22.927263 -01 47 24.42832
 2018-Sep-25 07:27  m  01 25 22.937379 -01 47 24.59872
 2018-Sep-25 07:28  m  01 25 22.947467 -01 47 24.76912
 2018-Sep-25 07:29  m  01 25 22.957527 -01 47 24.93952
 2018-Sep-25 07:30  m  01 25 22.967559 -01 47 25.10991
 2018-Sep-25 07:31  m  01 25 22.977563 -01 47 25.28030
 2018-Sep-25 07:32  m  01 25 22.987539 -01 47 25.45069
 2018-Sep-25 07:33  m  01 25 22.997488 -01 47 25.62108
 2018-Sep-25 07:34  m  01 25 23.007409 -01 47 25.79146
 2018-Sep-25 07:35  m  01 25 23.017303 -01 47 25.96184
 2018-Sep-25 07:36  m  01 25 23.027168 -01 47 26.13222
 2018-Sep-25 07:37  m  01 25 23.037007 -01 47 26.30260
 2018-Sep-25 07:38  m  01 25 23.046818 -01 47 26.47297
 2018-Sep-25 07:39  m  01 25 23.056602 -01 47 26.64334
 2018-Sep-25 07:40  m  01 25 23.066358 -01 47 26.81371
 2018-Sep-25 07:41  m  01 25 23.076087 -01 47 26.98407
 2018-Sep-25 07:42  m  01 25 23.085789 -01 47 27.15443
 2018-Sep-25 07:43  m  01 25 23.095465 -01 47 27.32479
 2018-Sep-25 07:44  m  01 25 23.105113 -01 47 27.49514
 2018-Sep-25 07:45  m  01 25 23.114734 -01 47 27.66550
 2018-Sep-25 07:46  m  01 25 23.124328 -01 47 27.83584
 2018-Sep-25 07:47  m  01 25 23.133896 -01 47 28.00619
 2018-Sep-25 07:48  m  01 25 23.143437 -01 47 28.17653
 2018-Sep-25 07:49  m  01 25 23.152951 -01 47 28.34687
 2018-Sep-25 07:50  m  01 25 23.162439 -01 47 28.51720
 2018-Sep-25 07:51  m  01 25 23.171901 -01 47 28.68753
 2018-Sep-25 07:52  m  01 25 23.181336 -01 47 28.85786
 2018-Sep-25 07:53  m  01 25 23.190744 -01 47 29.02819
 2018-Sep-25 07:54  m  01 25 23.200127 -01 47 29.19851
 2018-Sep-25 07:55  m  01 25 23.209483 -01 47 29.36882
 2018-Sep-25 07:56  m  01 25 23.218813 -01 47 29.53913
 2018-Sep-25 07:57  m  01 25 23.228118 -01 47 29.70944
 2018-Sep-25 07:58  m  01 25 23.237396 -01 47 29.87975
 2018-Sep-25 07:59  m  01 25 23.246649 -01 47 30.05005
 2018-Sep-25 08:00  m  01 25 23.255875 -01 47 30.22035
 2018-Sep-25 08:01  m  01 25 23.265077 -01 47 30.39064
 2018-Sep-25 08:02  m  01 25 23.274252 -01 47 30.56093
 2018-Sep-25 08:03  m  01 25 23.283402 -01 47 30.73121
 2018-Sep-25 08:04  m  01 25 23.292527 -01 47 30.90149
 2018-Sep-25 08:05  m  01 25 23.301626 -01 47 31.07177
 2018-Sep-25 08:06  m  01 25 23.310700 -01 47 31.24204
 2018-Sep-25 08:07  m  01 25 23.319749 -01 47 31.41231
 2018-Sep-25 08:08  m  01 25 23.328773 -01 47 31.58257
 2018-Sep-25 08:09  m  01 25 23.337772 -01 47 31.75283
 2018-Sep-25 08:10  m  01 25 23.346745 -01 47 31.92309
 2018-Sep-25 08:11  m  01 25 23.355694 -01 47 32.09334
 2018-Sep-25 08:12  m  01 25 23.364619 -01 47 32.26358
 2018-Sep-25 08:13  m  01 25 23.373518 -01 47 32.43382
 2018-Sep-25 08:14  m  01 25 23.382393 -01 47 32.60406
 2018-Sep-25 08:15  m  01 25 23.391244 -01 47 32.77429
 2018-Sep-25 08:16  m  01 25 23.400070 -01 47 32.94451
 2018-Sep-25 08:17  m  01 25 23.408872 -01 47 33.11474
 2018-Sep-25 08:18  m  01 25 23.417649 -01 47 33.28495
 2018-Sep-25 08:19  m  01 25 23.426403 -01 47 33.45516
 2018-Sep-25 08:20  m  01 25 23.435132 -01 47 33.62537
 2018-Sep-25 08:21  m  01 25 23.443838 -01 47 33.79557
 2018-Sep-25 08:22  m  01 25 23.452519 -01 47 33.96577
 2018-Sep-25 08:23  m  01 25 23.461177 -01 47 34.13596
 2018-Sep-25 08:24  m  01 25 23.469811 -01 47 34.30615
 2018-Sep-25 08:25  m  01 25 23.478422 -01 47 34.47633
 2018-Sep-25 08:26  m  01 25 23.487009 -01 47 34.64651
 2018-Sep-25 08:27  m  01 25 23.495572 -01 47 34.81668
 2018-Sep-25 08:28  m  01 25 23.504113 -01 47 34.98684
 2018-Sep-25 08:29  m  01 25 23.512630 -01 47 35.15700
 2018-Sep-25 08:30  m  01 25 23.521124 -01 47 35.32716
